CCSDS_OMM_VERS = 2.0
CREATION_DATE  = 
ORIGINATOR     = 

OBJECT_NAME    = KUIPER-00205
OBJECT_ID      = 2026-030L
CENTER_NAME    = EARTH
REF_FRAME      = TEME
TIME_SYSTEM    = UTC
MEAN_ELEMENT_THEORY = SGP/SGP4

EPOCH          = 2026-03-12T17:51:50.069664
MEAN_MOTION    = 15.36589725
ECCENTRICITY   = .0003598
INCLINATION    = 51.8805
RA_OF_ASC_NODE = 204.2983
ARG_OF_PERICENTER = 28.7003
MEAN_ANOMALY   = 331.4181

EPHEMERIS_TYPE = 0
CLASSIFICATION_TYPE = U
NORAD_CAT_ID   = 67774
ELEMENT_SET_NO = 999
REV_AT_EPOCH   = 556
BSTAR          = .11831276E-2
MEAN_MOTION_DOT = .4278E-3
MEAN_MOTION_DDOT = 0

CCSDS_OMM_VERS = 2.0
CREATION_DATE  = 
ORIGINATOR     = 

OBJECT_NAME    = KUIPER-00208
OBJECT_ID      = 2026-030M
CENTER_NAME    = EARTH
REF_FRAME      = TEME
TIME_SYSTEM    = UTC
MEAN_ELEMENT_THEORY = SGP/SGP4

EPOCH          = 2026-03-12T19:16:28.661664
MEAN_MOTION    = 15.32194773
ECCENTRICITY   = .00160215
INCLINATION    = 51.8829
RA_OF_ASC_NODE = 204.6825
ARG_OF_PERICENTER = 67.0958
MEAN_ANOMALY   = 293.1716

EPHEMERIS_TYPE = 0
CLASSIFICATION_TYPE = U
NORAD_CAT_ID   = 67775
ELEMENT_SET_NO = 999
REV_AT_EPOCH   = 556
BSTAR          = .67684635E-3
MEAN_MOTION_DOT = .21118E-3
MEAN_MOTION_DDOT = 0

CCSDS_OMM_VERS = 2.0
CREATION_DATE  = 
ORIGINATOR     = 

OBJECT_NAME    = KUIPER-00209
OBJECT_ID      = 2026-030N
CENTER_NAME    = EARTH
REF_FRAME      = TEME
TIME_SYSTEM    = UTC
MEAN_ELEMENT_THEORY = SGP/SGP4

EPOCH          = 2026-03-12T22:46:53.357952
MEAN_MOTION    = 15.29678177
ECCENTRICITY   = .00132746
INCLINATION    = 51.8839
RA_OF_ASC_NODE = 204.1518
ARG_OF_PERICENTER = 69.6923
MEAN_ANOMALY   = 290.5486

EPHEMERIS_TYPE = 0
CLASSIFICATION_TYPE = U
NORAD_CAT_ID   = 67776
ELEMENT_SET_NO = 999
REV_AT_EPOCH   = 558
BSTAR          = .13196429E-2
MEAN_MOTION_DOT = .38426E-3
MEAN_MOTION_DDOT = 0

CCSDS_OMM_VERS = 2.0
CREATION_DATE  = 
ORIGINATOR     = 

OBJECT_NAME    = KUIPER-00213
OBJECT_ID      = 2026-030P
CENTER_NAME    = EARTH
REF_FRAME      = TEME
TIME_SYSTEM    = UTC
MEAN_ELEMENT_THEORY = SGP/SGP4

EPOCH          = 2026-03-12T22:22:25.245696
MEAN_MOTION    = 15.32708014
ECCENTRICITY   = .00154078
INCLINATION    = 51.8798
RA_OF_ASC_NODE = 204.0369
ARG_OF_PERICENTER = 74.0889
MEAN_ANOMALY   = 286.1792

EPHEMERIS_TYPE = 0
CLASSIFICATION_TYPE = U
NORAD_CAT_ID   = 67777
ELEMENT_SET_NO = 999
REV_AT_EPOCH   = 558
BSTAR          = .81948592E-3
MEAN_MOTION_DOT = .26079E-3
MEAN_MOTION_DDOT = 0

CCSDS_OMM_VERS = 2.0
CREATION_DATE  = 
ORIGINATOR     = 

OBJECT_NAME    = KUIPER-00214
OBJECT_ID      = 2026-030Q
CENTER_NAME    = EARTH
REF_FRAME      = TEME
TIME_SYSTEM    = UTC
MEAN_ELEMENT_THEORY = SGP/SGP4

EPOCH          = 2026-03-12T19:13:49.893024
MEAN_MOTION    = 15.36944551
ECCENTRICITY   = .00005548
INCLINATION    = 51.8832
RA_OF_ASC_NODE = 203.9405
ARG_OF_PERICENTER = 351.6615
MEAN_ANOMALY   = 8.4362

EPHEMERIS_TYPE = 0
CLASSIFICATION_TYPE = U
NORAD_CAT_ID   = 67778
ELEMENT_SET_NO = 999
REV_AT_EPOCH   = 557
BSTAR          = .59882685E-3
MEAN_MOTION_DOT = .21647E-3
MEAN_MOTION_DDOT = 0

CCSDS_OMM_VERS = 2.0
CREATION_DATE  = 
ORIGINATOR     = 

OBJECT_NAME    = KUIPER-00215
OBJECT_ID      = 2026-030R
CENTER_NAME    = EARTH
REF_FRAME      = TEME
TIME_SYSTEM    = UTC
MEAN_ELEMENT_THEORY = SGP/SGP4

EPOCH          = 2026-03-11T17:39:47.569536
MEAN_MOTION    = 15.34588543
ECCENTRICITY   = .00105203
INCLINATION    = 51.8834
RA_OF_ASC_NODE = 209.5383
ARG_OF_PERICENTER = 66.2297
MEAN_ANOMALY   = 293.9791

EPHEMERIS_TYPE = 0
CLASSIFICATION_TYPE = U
NORAD_CAT_ID   = 67779
ELEMENT_SET_NO = 999
REV_AT_EPOCH   = 540
BSTAR          = .9528564E-3
MEAN_MOTION_DOT = .32228E-3
MEAN_MOTION_DDOT = 0

CCSDS_OMM_VERS = 2.0
CREATION_DATE  = 
ORIGINATOR     = 

OBJECT_NAME    = KUIPER-00218
OBJECT_ID      = 2026-030S
CENTER_NAME    = EARTH
REF_FRAME      = TEME
TIME_SYSTEM    = UTC
MEAN_ELEMENT_THEORY = SGP/SGP4

EPOCH          = 2026-03-12T15:13:59.687040
MEAN_MOTION    = 15.35355842
ECCENTRICITY   = .0007103
INCLINATION    = 51.8841
RA_OF_ASC_NODE = 205.0636
ARG_OF_PERICENTER = 58.4826
MEAN_ANOMALY   = 301.6853

EPHEMERIS_TYPE = 0
CLASSIFICATION_TYPE = U
NORAD_CAT_ID   = 67780
ELEMENT_SET_NO = 999
REV_AT_EPOCH   = 554
BSTAR          = .95182E-3
MEAN_MOTION_DOT = .3297E-3
MEAN_MOTION_DDOT = 0

CCSDS_OMM_VERS = 2.0
CREATION_DATE  = 
ORIGINATOR     = 

OBJECT_NAME    = KUIPER-00220
OBJECT_ID      = 2026-030T
CENTER_NAME    = EARTH
REF_FRAME      = TEME
TIME_SYSTEM    = UTC
MEAN_ELEMENT_THEORY = SGP/SGP4

EPOCH          = 2026-03-12T13:51:52.009920
MEAN_MOTION    = 15.34940236
ECCENTRICITY   = .0008536
INCLINATION    = 51.8815
RA_OF_ASC_NODE = 205.4205
ARG_OF_PERICENTER = 64.1453
MEAN_ANOMALY   = 296.0412

EPHEMERIS_TYPE = 0
CLASSIFICATION_TYPE = U
NORAD_CAT_ID   = 67781
ELEMENT_SET_NO = 999
REV_AT_EPOCH   = 553
BSTAR          = .10621E-2
MEAN_MOTION_DOT = .36374E-3
MEAN_MOTION_DDOT = 0

CCSDS_OMM_VERS = 2.0
CREATION_DATE  = 
ORIGINATOR     = 

OBJECT_NAME    = KUIPER-00222
OBJECT_ID      = 2026-030U
CENTER_NAME    = EARTH
REF_FRAME      = TEME
TIME_SYSTEM    = UTC
MEAN_ELEMENT_THEORY = SGP/SGP4

EPOCH          = 2026-03-12T17:48:19.589760
MEAN_MOTION    = 15.32177597
ECCENTRICITY   = .00173813
INCLINATION    = 51.8794
RA_OF_ASC_NODE = 205.0095
ARG_OF_PERICENTER = 76.7472
MEAN_ANOMALY   = 283.5450

EPHEMERIS_TYPE = 0
CLASSIFICATION_TYPE = U
NORAD_CAT_ID   = 67782
ELEMENT_SET_NO = 999
REV_AT_EPOCH   = 555
BSTAR          = .1101139E-2
MEAN_MOTION_DOT = .3466E-3
MEAN_MOTION_DDOT = 0

CCSDS_OMM_VERS = 2.0
CREATION_DATE  = 
ORIGINATOR     = 

OBJECT_NAME    = KUIPER-00223
OBJECT_ID      = 2026-030V
CENTER_NAME    = EARTH
REF_FRAME      = TEME
TIME_SYSTEM    = UTC
MEAN_ELEMENT_THEORY = SGP/SGP4

EPOCH          = 2026-03-12T18:47:23.577792
MEAN_MOTION    = 15.34266835
ECCENTRICITY   = .00124002
INCLINATION    = 51.8835
RA_OF_ASC_NODE = 204.5516
ARG_OF_PERICENTER = 67.4257
MEAN_ANOMALY   = 292.8039

EPHEMERIS_TYPE = 0
CLASSIFICATION_TYPE = U
NORAD_CAT_ID   = 67783
ELEMENT_SET_NO = 999
REV_AT_EPOCH   = 556
BSTAR          = .11228961E-2
MEAN_MOTION_DOT = .3771E-3
MEAN_MOTION_DDOT = 0

CCSDS_OMM_VERS = 2.0
CREATION_DATE  = 
ORIGINATOR     = 

OBJECT_NAME    = KUIPER-00225
OBJECT_ID      = 2026-030W
CENTER_NAME    = EARTH
REF_FRAME      = TEME
TIME_SYSTEM    = UTC
MEAN_ELEMENT_THEORY = SGP/SGP4

EPOCH          = 2026-03-12T18:03:27.982080
MEAN_MOTION    = 15.35574856
ECCENTRICITY   = .00030287
INCLINATION    = 51.8813
RA_OF_ASC_NODE = 204.3497
ARG_OF_PERICENTER = 38.5587
MEAN_ANOMALY   = 321.5615

EPHEMERIS_TYPE = 0
CLASSIFICATION_TYPE = U
NORAD_CAT_ID   = 67784
ELEMENT_SET_NO = 999
REV_AT_EPOCH   = 556
BSTAR          = .16523309E-1
MEAN_MOTION_DOT = .622202E-2
MEAN_MOTION_DDOT = 0

CCSDS_OMM_VERS = 2.0
CREATION_DATE  = 
ORIGINATOR     = 

OBJECT_NAME    = KUIPER-00226
OBJECT_ID      = 2026-030X
CENTER_NAME    = EARTH
REF_FRAME      = TEME
TIME_SYSTEM    = UTC
MEAN_ELEMENT_THEORY = SGP/SGP4

EPOCH          = 2026-03-12T18:14:53.561760
MEAN_MOTION    = 15.30649080
ECCENTRICITY   = .00194413
INCLINATION    = 51.8829
RA_OF_ASC_NODE = 205.1308
ARG_OF_PERICENTER = 80.7069
MEAN_ANOMALY   = 279.6113

EPHEMERIS_TYPE = 0
CLASSIFICATION_TYPE = U
NORAD_CAT_ID   = 67785
ELEMENT_SET_NO = 999
REV_AT_EPOCH   = 555
BSTAR          = .11851992E-2
MEAN_MOTION_DOT = .35628E-3
MEAN_MOTION_DDOT = 0

CCSDS_OMM_VERS = 2.0
CREATION_DATE  = 
ORIGINATOR     = 

OBJECT_NAME    = KUIPER-00259
OBJECT_ID      = 2026-030Y
CENTER_NAME    = EARTH
REF_FRAME      = TEME
TIME_SYSTEM    = UTC
MEAN_ELEMENT_THEORY = SGP/SGP4

EPOCH          = 2026-03-12T18:25:07.896864
MEAN_MOTION    = 15.35239757
ECCENTRICITY   = .00088736
INCLINATION    = 51.8816
RA_OF_ASC_NODE = 204.4470
ARG_OF_PERICENTER = 57.5068
MEAN_ANOMALY   = 302.6775

EPHEMERIS_TYPE = 0
CLASSIFICATION_TYPE = U
NORAD_CAT_ID   = 67786
ELEMENT_SET_NO = 999
REV_AT_EPOCH   = 556
BSTAR          = .1040052E-2
MEAN_MOTION_DOT = .35957E-3
MEAN_MOTION_DDOT = 0

CCSDS_OMM_VERS = 2.0
CREATION_DATE  = 
ORIGINATOR     = 

OBJECT_NAME    = KUIPER-00260
OBJECT_ID      = 2026-030Z
CENTER_NAME    = EARTH
REF_FRAME      = TEME
TIME_SYSTEM    = UTC
MEAN_ELEMENT_THEORY = SGP/SGP4

EPOCH          = 2026-03-12T17:48:29.892096
MEAN_MOTION    = 15.36687579
ECCENTRICITY   = .00017758
INCLINATION    = 51.8805
RA_OF_ASC_NODE = 204.2810
ARG_OF_PERICENTER = 41.9993
MEAN_ANOMALY   = 318.1129

EPHEMERIS_TYPE = 0
CLASSIFICATION_TYPE = U
NORAD_CAT_ID   = 67787
ELEMENT_SET_NO = 999
REV_AT_EPOCH   = 547
BSTAR          = .10513935E-2
MEAN_MOTION_DOT = .38066E-3
MEAN_MOTION_DDOT = 0

CCSDS_OMM_VERS = 2.0
CREATION_DATE  = 
ORIGINATOR     = 

OBJECT_NAME    = KUIPER-00262
OBJECT_ID      = 2026-030AA
CENTER_NAME    = EARTH
REF_FRAME      = TEME
TIME_SYSTEM    = UTC
MEAN_ELEMENT_THEORY = SGP/SGP4

EPOCH          = 2026-03-12T17:41:59.840160
MEAN_MOTION    = 15.36877241
ECCENTRICITY   = .00008735
INCLINATION    = 51.8819
RA_OF_ASC_NODE = 204.2534
ARG_OF_PERICENTER = 34.0598
MEAN_ANOMALY   = 326.0445

EPHEMERIS_TYPE = 0
CLASSIFICATION_TYPE = U
NORAD_CAT_ID   = 67788
ELEMENT_SET_NO = 999
REV_AT_EPOCH   = 556
BSTAR          = .12235559E-2
MEAN_MOTION_DOT = .44675E-3
MEAN_MOTION_DDOT = 0

